start=new Date('2022-10-11T00:00:00.000Z').valueOf();
sats=[{"TLE_LINE1":"1 45229U 20012BD  22283.77084839 -.00003835  00000-0 -23876-3 0  9990","COUNTRY_CODE":"US","PERIOD":"95.593","MEAN_MOTION_DDOT":"0.0000000000000","INCLINATION":"53.0556","MEAN_MOTION":"15.06385972","EPHEMERIS_TYPE":"0","ELEMENT_SET_NO":"999","RCS_SIZE":"LARGE","MEAN_ELEMENT_THEORY":"SGP4","ECCENTRICITY":"0.00018140","EPOCH":"2022-10-10T18:30:01.300896","CENTER_NAME":"EARTH","REV_AT_EPOCH":"14750","RA_OF_ASC_NODE":"199.7766","FILE":"3601747","DECAY_DATE":null,"MEAN_ANOMALY":"240.4111","SEMIMAJOR_AXIS":"6925.392","TIME_SYSTEM":"UTC","SITE":"AFETR","NORAD_CAT_ID":"45229","OBJECT_NAME":"STARLINK-1226","TLE_LINE2":"2 45229  53.0556 199.7766 0001814 119.7059 240.4111 15.06385972147505","APOAPSIS":"548.513","OBJECT_ID":"2020-012BD","GP_ID":"214713859","REF_FRAME":"TEME","BSTAR":"-0.00023876000000","CLASSIFICATION_TYPE":"U","ARG_OF_PERICENTER":"119.7059","PERIAPSIS":"546.000","LAUNCH_DATE":"2020-02-17","OBJECT_TYPE":"PAYLOAD","MEAN_MOTION_DOT":"-0.00003835"},{"TLE_LINE1":"1 45230U 20012BE  22283.76716391  .00000564  00000-0  56799-4 0  9991","COUNTRY_CODE":"US","PERIOD":"95.593","MEAN_MOTION_DDOT":"0.0000000000000","INCLINATION":"53.0552","MEAN_MOTION":"15.06386159","EPHEMERIS_TYPE":"0","ELEMENT_SET_NO":"999","RCS_SIZE":"LARGE","MEAN_ELEMENT_THEORY":"SGP4","ECCENTRICITY":"0.00012390","EPOCH":"2022-10-10T18:24:42.961824","CENTER_NAME":"EARTH","REV_AT_EPOCH":"14762","RA_OF_ASC_NODE":"199.7862","FILE":"3601747","DECAY_DATE":null,"MEAN_ANOMALY":"274.7268","TIME_SYSTEM":"UTC","SEMIMAJOR_AXIS":"6925.391","SITE":"AFETR","NORAD_CAT_ID":"45230","TLE_LINE2":"2 45230  53.0552 199.7862 0001239  85.3863 274.7268 15.06386159147626","OBJECT_NAME":"STARLINK-1227","APOAPSIS":"548.114","GP_ID":"214714608","OBJECT_ID":"2020-012BE","REF_FRAME":"TEME","BSTAR":"0.00005679900000","CLASSIFICATION_TYPE":"U","ARG_OF_PERICENTER":"85.3863","LAUNCH_DATE":"2020-02-17","PERIAPSIS":"546.398","OBJECT_TYPE":"PAYLOAD","MEAN_MOTION_DOT":"0.00000564"},{"MEAN_MOTION":"15.88669507","EPHEMERIS_TYPE":"0","MEAN_MOTION_DDOT":"0.0000000000000","INCLINATION":"53.0148","RCS_SIZE":"LARGE","ELEMENT_SET_NO":"999","COUNTRY_CODE":"US","PERIOD":"90.642","TLE_LINE1":"1 45231U 20012BF  22283.59761341  .00225390  00000-0  76743-3 0  9994","CENTER_NAME":"EARTH","RA_OF_ASC_NODE":"325.0103","REV_AT_EPOCH":"15073","ECCENTRICITY":"0.00058050","EPOCH":"2022-10-10T14:20:33.798624","MEAN_ELEMENT_THEORY":"SGP4","TLE_LINE2":"2 45231  53.0148 325.0103 0005805  44.8605 315.2887 15.88669507150732","OBJECT_NAME":"STARLINK-1229","SITE":"AFETR","NORAD_CAT_ID":"45231","TIME_SYSTEM":"UTC","SEMIMAJOR_AXIS":"6684.149","FILE":"3601747","DECAY_DATE":null,"MEAN_ANOMALY":"315.2887","OBJECT_TYPE":"PAYLOAD","LAUNCH_DATE":"2020-02-17","PERIAPSIS":"302.134","MEAN_MOTION_DOT":"0.00225390","ARG_OF_PERICENTER":"44.8605","CLASSIFICATION_TYPE":"U","BSTAR":"0.00076743000000","APOAPSIS":"309.894","REF_FRAME":"TEME","GP_ID":"214714859","OBJECT_ID":"2020-012BF"},{"ARG_OF_PERICENTER":"93.3360","OBJECT_TYPE":"PAYLOAD","LAUNCH_DATE":"2020-02-17","PERIAPSIS":"546.321","MEAN_MOTION_DOT":"0.00003113","APOAPSIS":"548.109","REF_FRAME":"TEME","OBJECT_ID":"2020-012BG","GP_ID":"214672591","CLASSIFICATION_TYPE":"U","BSTAR":"0.00022778000000","SITE":"AFETR","NORAD_CAT_ID":"45232","TLE_LINE2":"2 45232  53.0549 200.9231 0001291  93.3360 266.7777 15.06399452147578","OBJECT_NAME":"STARLINK-1235","FILE":"3600948","MEAN_ANOMALY":"266.7777","DECAY_DATE":null,"SEMIMAJOR_AXIS":"6925.350","TIME_SYSTEM":"UTC","ECCENTRICITY":"0.00012910","EPOCH":"2022-10-10T12:17:06.247968","CENTER_NAME":"EARTH","RA_OF_ASC_NODE":"200.9231","REV_AT_EPOCH":"14757","MEAN_ELEMENT_THEORY":"SGP4","COUNTRY_CODE":"US","PERIOD":"95.592","MEAN_MOTION":"15.06399452","EPHEMERIS_TYPE":"0","MEAN_MOTION_DDOT":"0.0000000000000","INCLINATION":"53.0549","RCS_SIZE":"LARGE","ELEMENT_SET_NO":"999","TLE_LINE1":"1 45232U 20012BG  22283.51187787  .00003113  00000-0  22778-3 0  9999"},{"MEAN_MOTION_DOT":"0.00003098","OBJECT_TYPE":"PAYLOAD","LAUNCH_DATE":"2020-02-17","PERIAPSIS":"546.423","ARG_OF_PERICENTER":"77.8321","CLASSIFICATION_TYPE":"U","BSTAR":"0.00022680000000","REF_FRAME":"TEME","GP_ID":"214714358","OBJECT_ID":"2020-012BH","APOAPSIS":"548.009","OBJECT_NAME":"STARLINK-1238","TLE_LINE2":"2 45233  53.0543 219.5252 0001145  77.8321 282.2796 15.06399317147321","SITE":"AFETR","NORAD_CAT_ID":"45233","SEMIMAJOR_AXIS":"6925.351","TIME_SYSTEM":"UTC","MEAN_ANOMALY":"282.2796","DECAY_DATE":null,"FILE":"3601747","RA_OF_ASC_NODE":"219.5252","REV_AT_EPOCH":"14732","CENTER_NAME":"EARTH","EPOCH":"2022-10-10T19:46:58.434816","ECCENTRICITY":"0.00011450","MEAN_ELEMENT_THEORY":"SGP4","RCS_SIZE":"LARGE","ELEMENT_SET_NO":"999","EPHEMERIS_TYPE":"0","MEAN_MOTION":"15.06399317","MEAN_MOTION_DDOT":"0.0000000000000","INCLINATION":"53.0543","PERIOD":"95.592","COUNTRY_CODE":"US","TLE_LINE1":"1 45233U 20012BH  22283.82428744  .00003098  00000-0  22680-3 0  9999"},{"SEMIMAJOR_AXIS":"6925.377","TIME_SYSTEM":"UTC","FILE":"3601747","DECAY_DATE":null,"MEAN_ANOMALY":"270.8030","OBJECT_NAME":"STARLINK-1243","TLE_LINE2":"2 45234  53.0543 239.3661 0001406  89.3120 270.8030 15.06390666147031","SITE":"AFETR","NORAD_CAT_ID":"45234","CLASSIFICATION_TYPE":"U","BSTAR":"-0.00001104200000","APOAPSIS":"548.216","REF_FRAME":"TEME","GP_ID":"214714109","OBJECT_ID":"2020-012BJ","OBJECT_TYPE":"PAYLOAD","PERIAPSIS":"546.268","LAUNCH_DATE":"2020-02-17","MEAN_MOTION_DOT":"-0.00000446","ARG_OF_PERICENTER":"89.3120","TLE_LINE1":"1 45234U 20012BJ  22283.86299511 -.00000446  00000-0 -11042-4 0  9999","MEAN_MOTION":"15.06390666","EPHEMERIS_TYPE":"0","MEAN_MOTION_DDOT":"0.0000000000000","INCLINATION":"53.0543","RCS_SIZE":"LARGE","ELEMENT_SET_NO":"999","COUNTRY_CODE":"US","PERIOD":"95.593","MEAN_ELEMENT_THEORY":"SGP4","CENTER_NAME":"EARTH","RA_OF_ASC_NODE":"239.3661","REV_AT_EPOCH":"14703","ECCENTRICITY":"0.00014060","EPOCH":"2022-10-10T20:42:42.777504"},{"EPOCH":"2022-10-10T20:21:28.587456","ECCENTRICITY":"0.00015950","REV_AT_EPOCH":"14615","RA_OF_ASC_NODE":"239.4142","CENTER_NAME":"EARTH","MEAN_ELEMENT_THEORY":"SGP4","PERIOD":"95.593","COUNTRY_CODE":"US","ELEMENT_SET_NO":"999","RCS_SIZE":"LARGE","MEAN_MOTION_DDOT":"0.0000000000000","INCLINATION":"53.0551","EPHEMERIS_TYPE":"0","MEAN_MOTION":"15.06391477","TLE_LINE1":"1 45235U 20012BK  22283.84824754  .00000798  00000-0  72504-4 0  9999","ARG_OF_PERICENTER":"55.4133","MEAN_MOTION_DOT":"0.00000798","LAUNCH_DATE":"2020-02-17","PERIAPSIS":"546.135","OBJECT_TYPE":"PAYLOAD","OBJECT_ID":"2020-012BK","GP_ID":"214684813","REF_FRAME":"TEME","APOAPSIS":"548.344","BSTAR":"0.00007250400000","CLASSIFICATION_TYPE":"U","SITE":"AFETR","NORAD_CAT_ID":"45235","TLE_LINE2":"2 45235  53.0551 239.4142 0001595  55.4133 304.7007 15.06391477146157","OBJECT_NAME":"STARLINK-1246","MEAN_ANOMALY":"304.7007","DECAY_DATE":null,"FILE":"3601275","TIME_SYSTEM":"UTC","SEMIMAJOR_AXIS":"6925.375"},{"SEMIMAJOR_AXIS":"6925.342","TIME_SYSTEM":"UTC","DECAY_DATE":null,"MEAN_ANOMALY":"284.9265","FILE":"3601747","TLE_LINE2":"2 45236  53.0542 199.8054 0001462  75.1886 284.9265 15.06402040147601","OBJECT_NAME":"STARLINK-1247","NORAD_CAT_ID":"45236","SITE":"AFETR","CLASSIFICATION_TYPE":"U","BSTAR":"0.00030845000000","REF_FRAME":"TEME","GP_ID":"214715091","OBJECT_ID":"2020-012BL","APOAPSIS":"548.220","MEAN_MOTION_DOT":"0.00004316","OBJECT_TYPE":"PAYLOAD","LAUNCH_DATE":"2020-02-17","PERIAPSIS":"546.195","ARG_OF_PERICENTER":"75.1886","TLE_LINE1":"1 45236U 20012BL  22283.76347004  .00004316  00000-0  30845-3 0  9990","RCS_SIZE":"LARGE","ELEMENT_SET_NO":"999","EPHEMERIS_TYPE":"0","MEAN_MOTION":"15.06402040","MEAN_MOTION_DDOT":"0.0000000000000","INCLINATION":"53.0542","PERIOD":"95.592","COUNTRY_CODE":"US","MEAN_ELEMENT_THEORY":"SGP4","RA_OF_ASC_NODE":"199.8054","REV_AT_EPOCH":"14760","CENTER_NAME":"EARTH","EPOCH":"2022-10-10T18:19:23.811456","ECCENTRICITY":"0.00014620"},{"TLE_LINE1":"1 45237U 20012BM  22283.85193000  .00002775  00000-0  20517-3 0  9998","ELEMENT_SET_NO":"999","RCS_SIZE":"LARGE","MEAN_MOTION_DDOT":"0.0000000000000","INCLINATION":"53.0531","EPHEMERIS_TYPE":"0","MEAN_MOTION":"15.06394614","PERIOD":"95.592","COUNTRY_CODE":"US","MEAN_ELEMENT_THEORY":"SGP4","REV_AT_EPOCH":"14762","RA_OF_ASC_NODE":"199.3958","CENTER_NAME":"EARTH","EPOCH":"2022-10-10T20:26:46.752000","ECCENTRICITY":"0.00011250","SEMIMAJOR_AXIS":"6925.365","TIME_SYSTEM":"UTC","DECAY_DATE":null,"MEAN_ANOMALY":"283.4709","FILE":"3601747","TLE_LINE2":"2 45237  53.0531 199.3958 0001125  76.6405 283.4709 15.06394614147623","OBJECT_NAME":"STARLINK-1270","NORAD_CAT_ID":"45237","SITE":"AFETR","BSTAR":"0.00020517000000","CLASSIFICATION_TYPE":"U","OBJECT_ID":"2020-012BM","GP_ID":"214713860","REF_FRAME":"TEME","APOAPSIS":"548.009","MEAN_MOTION_DOT":"0.00002775","LAUNCH_DATE":"2020-02-17","PERIAPSIS":"546.451","OBJECT_TYPE":"PAYLOAD","ARG_OF_PERICENTER":"76.6405"},{"SITE":"AFETR","NORAD_CAT_ID":"45360","OBJECT_NAME":"STARLINK-1279","TLE_LINE2":"2 45360  53.0533 331.0879 0001997  41.2999 318.8141 15.06396511142303","DECAY_DATE":null,"MEAN_ANOMALY":"318.8141","FILE":"3600948","SEMIMAJOR_AXIS":"6925.359","TIME_SYSTEM":"UTC","ARG_OF_PERICENTER":"41.2999","MEAN_MOTION_DOT":"0.00003003","LAUNCH_DATE":"2020-03-18","PERIAPSIS":"545.841","OBJECT_TYPE":"PAYLOAD","OBJECT_ID":"2020-019A","GP_ID":"214673353","REF_FRAME":"TEME","APOAPSIS":"548.607","BSTAR":"0.00022046000000","CLASSIFICATION_TYPE":"U","PERIOD":"95.592","COUNTRY_CODE":"US","ELEMENT_SET_NO":"999","RCS_SIZE":"LARGE","MEAN_MOTION_DDOT":"0.0000000000000","INCLINATION":"53.0533","EPHEMERIS_TYPE":"0","MEAN_MOTION":"15.06396511","TLE_LINE1":"1 45360U 20019A   22283.47873434  .00003003  00000-0  22046-3 0  9990","EPOCH":"2022-10-10T11:29:22.646976","ECCENTRICITY":"0.00019970","REV_AT_EPOCH":"14230","RA_OF_ASC_NODE":"331.0879","CENTER_NAME":"EARTH","MEAN_ELEMENT_THEORY":"SGP4"}];
